STARLINK-35405          
1 66440U 25259U   25332.83336806 -.01982953  00000+0 -22356-1 0  9992
2 66440  42.9996 128.7995 0001401 269.6113 338.4383 15.64926800  4047
STARLINK-35426          
1 66441U 25259V   25332.83336806 -.01972782  00000+0 -22230-1 0  9993
2 66441  42.9999 128.7938 0001473 273.4441 336.5216 15.64920624  4046
STARLINK-34724          
1 66442U 25259W   25332.83336806 -.01963340  00000+0 -22121-1 0  9993
2 66442  42.9997 128.7895 0001366 271.5273 340.3692 15.64909015  4042
STARLINK-35219          
1 66443U 25259X   25332.83336806 -.01977088  00000+0 -22284-1 0  9998
2 66443  42.9997 128.7847 0001416 272.5478 341.2539 15.64923020  3933
STARLINK-35360          
1 66444U 25259Y   25332.83336806 -.01966606  00000+0 -22154-1 0  9999
2 66444  42.9994 128.7696 0001534 273.0886 346.4625 15.64916900  4048
STARLINK-34698          
1 66445U 25259Z   25332.83336806 -.01969948  00000+0 -22194-1 0  9996
2 66445  42.9995 128.7794 0001554 276.6560 339.0596 15.64919223  3932
STARLINK-34986          
1 66446U 25259AA  25332.83336806 -.01962933  00000+0 -22110-1 0  9992
2 66446  42.9995 128.7740 0001580 273.7189 343.9166 15.64913572  4049
STARLINK-34851          
1 66447U 25259AB  25332.83336806 -.01975982  00000+0 -22269-1 0  9996
2 66447  42.9994 128.7645 0001468 269.3560 352.1127 15.64923518  3939
STARLINK-35355          
1 66448U 25259AC  25332.83336806 -.01965179  00000+0 -22136-1 0  9997
2 66448  42.9996 128.7600 0001606 272.7572 350.6280 15.64915925  4047
STARLINK-34720          
1 66449U 25259AD  25332.83336806 -.01970212  00000+0 -22198-1 0  9990
2 66449  42.9997 128.7549 0001608 272.8964 352.4067 15.64918375  3931
STARLINK-35334          
1 66450U 25259AE  25332.83336806 -.01969991  00000+0 -22195-1 0  9991
2 66450  42.9996 128.7492 0001582 272.3209 354.8991 15.64918773  4044
VIASAT-3 F2             
1 66454U 25261A   25330.74705039 -.00000051  00000+0  00000+0 0  9994
2 66454   5.5832 293.8608 2341324 182.7714 334.4159  2.28187844   288
